LEMUR-2-ANDIS           
1 42838U 17042P   26068.55941107  .00023598  00000+0  79875-3 0  9998
2 42838  97.3659 249.7950 0009101   4.3248 355.8070 15.30557934473198
STARLINK-35742          
1 66276U 25247M   26068.62417634  .00047156  00000+0  15947-2 0  9992
2 66276  53.1577 191.7465 0001058  61.1170 298.9937 15.30189377 21071
